1 56899U 23083Z   25333.16949601  .00000388  00000+0  43755-4 0  9991
2 56899  43.0041 267.6212 0001096 270.3578  89.7139 15.02536086136660
